{"fetched_at":"2026-07-12T17:32:27.314Z","source":"https://celestrak.org/NORAD/elements/gp.php?GROUP=spire&FORMAT=JSON","constellation":"spire","records":[{"OBJECT_NAME":"LEMUR-2-LEIA-PHILIP","OBJECT_ID":"2025-052AN","EPOCH":"2026-07-12T09:31:27.094368","CLASSIFICATION_TYPE":"U","MEAN_MOTION":14.97388803,"ECCENTRICITY":0.0005093,"INCLINATION":97.6812,"RA_OF_ASC_NODE":84.9206,"ARG_OF_PERICENTER":125.6238,"MEAN_ANOMALY":234.5459,"EPHEMERIS_TYPE":0,"NORAD_CAT_ID":63246,"ELEMENT_SET_NO":999,"REV_AT_EPOCH":7244,"BSTAR":0.000063513,"MEAN_MOTION_DOT":0.00000681,"MEAN_MOTION_DDOT":0},{"OBJECT_NAME":"LEMUR-2-LIA-MARTIN","OBJECT_ID":"2025-052AQ","EPOCH":"2026-07-12T12:37:41.162304","CLASSIFICATION_TYPE":"U","MEAN_MOTION":14.98016816,"ECCENTRICITY":0.0005401,"INCLINATION":97.6876,"RA_OF_ASC_NODE":85.5617,"ARG_OF_PERICENTER":96.3421,"MEAN_ANOMALY":263.8416,"EPHEMERIS_TYPE":0,"NORAD_CAT_ID":63248,"ELEMENT_SET_NO":999,"REV_AT_EPOCH":7247,"BSTAR":0.00024768,"MEAN_MOTION_DOT":0.00002868,"MEAN_MOTION_DDOT":0},{"OBJECT_NAME":"LEMUR-2-DELOITTE-1","OBJECT_ID":"2025-052BB","EPOCH":"2026-07-12T12:08:54.092832","CLASSIFICATION_TYPE":"U","MEAN_MOTION":14.97769269,"ECCENTRICITY":0.0002451,"INCLINATION":97.6884,"RA_OF_ASC_NODE":85.8724,"ARG_OF_PERICENTER":68.193,"MEAN_ANOMALY":291.9552,"EPHEMERIS_TYPE":0,"NORAD_CAT_ID":63259,"ELEMENT_SET_NO":999,"REV_AT_EPOCH":7248,"BSTAR":0.00018901,"MEAN_MOTION_DOT":0.0000216,"MEAN_MOTION_DDOT":0},{"OBJECT_NAME":"LEMUR-2-EMERSONROSE","OBJECT_ID":"2025-052BD","EPOCH":"2026-07-12T04:32:41.063424","CLASSIFICATION_TYPE":"U","MEAN_MOTION":14.99273394,"ECCENTRICITY":0.00028094,"INCLINATION":97.6886,"RA_OF_ASC_NODE":86.167,"ARG_OF_PERICENTER":65.5633,"MEAN_ANOMALY":294.5883,"EPHEMERIS_TYPE":0,"NORAD_CAT_ID":63261,"ELEMENT_SET_NO":999,"REV_AT_EPOCH":7248,"BSTAR":0.00024432176,"MEAN_MOTION_DOT":0.00002923,"MEAN_MOTION_DDOT":0},{"OBJECT_NAME":"LEMUR-2-MARACHE-FRAN","OBJECT_ID":"2025-052BE","EPOCH":"2026-07-12T03:32:18.348576","CLASSIFICATION_TYPE":"U","MEAN_MOTION":15.00303753,"ECCENTRICITY":0.00048452,"INCLINATION":97.6853,"RA_OF_ASC_NODE":86.4899,"ARG_OF_PERICENTER":266.1769,"MEAN_ANOMALY":93.89,"EPHEMERIS_TYPE":0,"NORAD_CAT_ID":63262,"ELEMENT_SET_NO":999,"REV_AT_EPOCH":7250,"BSTAR":0.00014976894,"MEAN_MOTION_DOT":0.00001818,"MEAN_MOTION_DDOT":0},{"OBJECT_NAME":"LEMUR-2-THEFALCONER","OBJECT_ID":"2025-052BG","EPOCH":"2026-07-11T22:26:15.264096","CLASSIFICATION_TYPE":"U","MEAN_MOTION":14.97555399,"ECCENTRICITY":0.0000474,"INCLINATION":97.6847,"RA_OF_ASC_NODE":84.9044,"ARG_OF_PERICENTER":3.9992,"MEAN_ANOMALY":356.1234,"EPHEMERIS_TYPE":0,"NORAD_CAT_ID":63264,"ELEMENT_SET_NO":999,"REV_AT_EPOCH":7239,"BSTAR":0.00013628,"MEAN_MOTION_DOT":0.00001533,"MEAN_MOTION_DDOT":0},{"OBJECT_NAME":"LEMUR-2-UNTITLED-SC","OBJECT_ID":"2025-061A","EPOCH":"2026-07-12T09:49:31.482624","CLASSIFICATION_TYPE":"U","MEAN_MOTION":15.13635502,"ECCENTRICITY":0.0018943,"INCLINATION":97.5648,"RA_OF_ASC_NODE":168.5915,"ARG_OF_PERICENTER":172.439,"MEAN_ANOMALY":187.713,"EPHEMERIS_TYPE":0,"NORAD_CAT_ID":63351,"ELEMENT_SET_NO":999,"REV_AT_EPOCH":7140,"BSTAR":0.00012971,"MEAN_MOTION_DOT":0.00002273,"MEAN_MOTION_DDOT":0},{"OBJECT_NAME":"LEMUR-2-ESPERANZA","OBJECT_ID":"2025-061B","EPOCH":"2026-07-12T10:49:28.570368","CLASSIFICATION_TYPE":"U","MEAN_MOTION":15.1374234,"ECCENTRICITY":0.0018544,"INCLINATION":97.5656,"RA_OF_ASC_NODE":168.7323,"ARG_OF_PERICENTER":171.5151,"MEAN_ANOMALY":188.6398,"EPHEMERIS_TYPE":0,"NORAD_CAT_ID":63352,"ELEMENT_SET_NO":999,"REV_AT_EPOCH":7141,"BSTAR":0.00009237,"MEAN_MOTION_DOT":0.00001604,"MEAN_MOTION_DDOT":0},{"OBJECT_NAME":"LEMUR-2-KREMPEL-BRO2","OBJECT_ID":"2025-061C","EPOCH":"2026-07-12T00:11:46.355424","CLASSIFICATION_TYPE":"U","MEAN_MOTION":15.14166225,"ECCENTRICITY":0.00196594,"INCLINATION":97.5701,"RA_OF_ASC_NODE":168.8574,"ARG_OF_PERICENTER":165.91,"MEAN_ANOMALY":194.2684,"EPHEMERIS_TYPE":0,"NORAD_CAT_ID":63353,"ELEMENT_SET_NO":999,"REV_AT_EPOCH":7136,"BSTAR":0.00013500414,"MEAN_MOTION_DOT":0.00002405,"MEAN_MOTION_DDOT":0},{"OBJECT_NAME":"LEMUR-2-THERMORAPTOR","OBJECT_ID":"2025-061D","EPOCH":"2026-07-12T09:14:58.036416","CLASSIFICATION_TYPE":"U","MEAN_MOTION":15.14250775,"ECCENTRICITY":0.0019468,"INCLINATION":97.5707,"RA_OF_ASC_NODE":169.3131,"ARG_OF_PERICENTER":163.5067,"MEAN_ANOMALY":196.6802,"EPHEMERIS_TYPE":0,"NORAD_CAT_ID":63354,"ELEMENT_SET_NO":999,"REV_AT_EPOCH":7142,"BSTAR":0.00010034,"MEAN_MOTION_DOT":0.00001775,"MEAN_MOTION_DDOT":0},{"OBJECT_NAME":"LEMUR-2-NEUROSPICY","OBJECT_ID":"2025-061E","EPOCH":"2026-07-12T08:31:23.092896","CLASSIFICATION_TYPE":"U","MEAN_MOTION":15.14368466,"ECCENTRICITY":0.0017187,"INCLINATION":97.5634,"RA_OF_ASC_NODE":168.8898,"ARG_OF_PERICENTER":166.3942,"MEAN_ANOMALY":193.7757,"EPHEMERIS_TYPE":0,"NORAD_CAT_ID":63355,"ELEMENT_SET_NO":999,"REV_AT_EPOCH":7142,"BSTAR":0.00012585,"MEAN_MOTION_DOT":0.00002249,"MEAN_MOTION_DDOT":0},{"OBJECT_NAME":"LEMUR-2-TILLINFINITY","OBJECT_ID":"2025-061F","EPOCH":"2026-07-12T09:08:11.882976","CLASSIFICATION_TYPE":"U","MEAN_MOTION":15.14952784,"ECCENTRICITY":0.0018788,"INCLINATION":97.562,"RA_OF_ASC_NODE":169.2233,"ARG_OF_PERICENTER":155.1465,"MEAN_ANOMALY":205.0676,"EPHEMERIS_TYPE":0,"NORAD_CAT_ID":63356,"ELEMENT_SET_NO":999,"REV_AT_EPOCH":7145,"BSTAR":0.00010135,"MEAN_MOTION_DOT":0.00001829,"MEAN_MOTION_DDOT":0},{"OBJECT_NAME":"LEMUR-2-KREMPEL-BRO1","OBJECT_ID":"2025-061G","EPOCH":"2026-07-12T10:09:45.622944","CLASSIFICATION_TYPE":"U","MEAN_MOTION":15.14759905,"ECCENTRICITY":0.001938,"INCLINATION":97.5621,"RA_OF_ASC_NODE":169.1748,"ARG_OF_PERICENTER":156.3294,"MEAN_ANOMALY":203.8833,"EPHEMERIS_TYPE":0,"NORAD_CAT_ID":63357,"ELEMENT_SET_NO":999,"REV_AT_EPOCH":7145,"BSTAR":0.00012204,"MEAN_MOTION_DOT":0.00002205,"MEAN_MOTION_DDOT":0},{"OBJECT_NAME":"LEMUR-2-LANGER2SPACE","OBJECT_ID":"2025-061H","EPOCH":"2026-07-12T10:55:12.967680","CLASSIFICATION_TYPE":"U","MEAN_MOTION":15.14454251,"ECCENTRICITY":0.0017134,"INCLINATION":97.5625,"RA_OF_ASC_NODE":169.01,"ARG_OF_PERICENTER":164.4818,"MEAN_ANOMALY":195.6943,"EPHEMERIS_TYPE":0,"NORAD_CAT_ID":63358,"ELEMENT_SET_NO":999,"REV_AT_EPOCH":7144,"BSTAR":0.00010183,"MEAN_MOTION_DOT":0.00001811,"MEAN_MOTION_DDOT":0},{"OBJECT_NAME":"LEMUR-2-BALTO","OBJECT_ID":"2025-052BH","EPOCH":"2026-07-12T09:34:04.587744","CLASSIFICATION_TYPE":"U","MEAN_MOTION":15.00348293,"ECCENTRICITY":0.0005248,"INCLINATION":97.6934,"RA_OF_ASC_NODE":86.7232,"ARG_OF_PERICENTER":339.3712,"MEAN_ANOMALY":20.7298,"EPHEMERIS_TYPE":0,"NORAD_CAT_ID":63395,"ELEMENT_SET_NO":999,"REV_AT_EPOCH":7254,"BSTAR":0.00023128,"MEAN_MOTION_DOT":0.00002843,"MEAN_MOTION_DDOT":0},{"OBJECT_NAME":"LEMUR-2-KRISH","OBJECT_ID":"2025-135AK","EPOCH":"2026-07-11T19:36:33.699744","CLASSIFICATION_TYPE":"U","MEAN_MOTION":14.96434298,"ECCENTRICITY":0.00016273,"INCLINATION":97.777,"RA_OF_ASC_NODE":307.5283,"ARG_OF_PERICENTER":96.8966,"MEAN_ANOMALY":263.2441,"EPHEMERIS_TYPE":0,"NORAD_CAT_ID":64561,"ELEMENT_SET_NO":999,"REV_AT_EPOCH":5760,"BSTAR":0.00023929928,"MEAN_MOTION_DOT":0.00002656,"MEAN_MOTION_DDOT":0}]}
